GSAT0101 (PRN E11)      
1 37846U 11060A   23232.63214153 -.00000077  00000+0  00000+0 0  9996
2 37846  57.1080   9.6970 0002304  72.9466 287.0814  1.70476050 73667
GSAT0102 (PRN E12)      
1 37847U 11060B   23230.76104728 -.00000083  00000+0  00000+0 0  9992
2 37847  57.1086   9.7474 0001470  11.3950 326.6088  1.70475522 73624
GSAT0103 (PRN E19)      
1 38857U 12055A   23232.08469625  .00000007  00000+0  00000+0 0  9991
2 38857  55.2766 129.9128 0003295 271.4237  88.6052  1.70473763 67551
GSAT0104 (PRN E20)      
1 38858U 12055B   23231.46758736  .00000004  00000+0  00000+0 0  9994
2 38858  55.2766 129.9313 0000745 273.4815  86.5749  1.70474049 67513
GSAT0201 (PRN E18)      
1 40128U 14050A   23234.40711256 -.00000068  00000+0  00000+0 0  9998
2 40128  49.9469 315.0851 1609473 139.8832 233.2080  1.85519167 61159
GSAT0202 (PRN E14)      
1 40129U 14050B   23231.43258664 -.00000074  00000+0  00000+0 0  9995
2 40129  49.9690 314.2753 1607511 140.5786 232.3202  1.85519993 61294
GSAT0203 (PRN E26)      
1 40544U 15017A   23232.41163736 -.00000078  00000+0  00000+0 0  9998
2 40544  56.9030   9.6778 0002557 220.2130 139.7705  1.70476306 52270
GSAT0204 (PRN E22)      
1 40545U 15017B   23231.49205298 -.00000081  00000+0  00000+0 0  9990
2 40545  56.9091   9.7170 0003001 200.5976 159.3905  1.70475772 52264
GSAT0205 (PRN E24)      
1 40889U 15045A   23233.60633661  .00000060  00000+0  00000+0 0  9992
2 40889  55.3705 250.0760 0003274 357.5064   2.5292  1.70473501 49441
GSAT0206 (PRN E30)      
1 40890U 15045B   23232.65385659  .00000057  00000+0  00000+0 0  9995
2 40890  55.3701 250.0979 0002216 320.8323  39.1897  1.70473588 49450
GSAT0209 (PRN E09)      
1 41174U 15079A   23233.41215736  .00000010  00000+0  00000+0 0  9990
2 41174  55.2947 129.5831 0003483 325.2084  34.8370  1.70473974 47785
GSAT0208 (PRN E08)      
1 41175U 15079B   23234.21836908  .00000010  00000+0  00000+0 0  9990
2 41175  55.2933 129.5591 0002470 337.5471  22.5092  1.70473778 47793
GSAT0211 (PRN E02)      
1 41549U 16030A   23233.75270403  .00000061  00000+0  00000+0 0  9999
2 41549  55.5168 250.0462 0003848 306.4856  53.5162  1.70473621 45089
GSAT0210 (PRN E01)      
1 41550U 16030B   23232.28449079  .00000056  00000+0  00000+0 0  9999
2 41550  55.5168 250.0878 0004195 272.6312  87.3597  1.70473733 45057
GSAT0207 (PRN E07)      
1 41859U 16069A   23231.94626019  .00000006  00000+0  00000+0 0  9991
2 41859  54.9567 129.6990 0003503 306.9407  53.0937  1.70473928 42027
GSAT0212 (PRN E03)      
1 41860U 16069B   23232.97410945  .00000009  00000+0  00000+0 0  9999
2 41860  54.9547 129.6675 0002622 346.7705  13.2905  1.70474106 42078
GSAT0213 (PRN E04)      
1 41861U 16069C   23231.58029896  .00000004  00000+0  00000+0 0  9992
2 41861  54.9566 129.7121 0003345 280.9005  79.1273  1.70472786 42040
GSAT0214 (PRN E05)      
1 41862U 16069D   23232.31411808  .00000007  00000+0  00000+0 0  9996
2 41862  54.9559 129.6858 0002363 289.8659  70.1758  1.70472610 42057
GSAT0215 (PRN E21)      
1 43055U 17079A   23231.04322977  .00000053  00000+0  00000+0 0  9992
2 43055  55.4943 249.9471 0003739 266.1461  93.8541  1.70474347 35378
GSAT0216 (PRN E25)      
1 43056U 17079B   23233.68148162  .00000061  00000+0  00000+0 0  9996
2 43056  55.4934 249.8741 0005289 272.8592  87.1172  1.70474409 35408
GSAT0217 (PRN E27)      
1 43057U 17079C   23233.31524856  .00000060  00000+0  00000+0 0  9994
2 43057  55.4929 249.8832 0004672 285.0509  74.9344  1.70474414 35415
GSAT0218 (PRN E31)      
1 43058U 17079D   23233.53530137  .00000060  00000+0  00000+0 0  9998
2 43058  55.4916 249.8748 0005764 270.6783  89.2926  1.70474367 35417
GSAT0221 (PRN E15)      
1 43564U 18060A   23232.84840065 -.00000076  00000+0  00000+0 0  9996
2 43564  57.2839   9.5906 0002209 253.6201 106.3589  1.70476085 31597
GSAT0222 (PRN E33)      
1 43565U 18060B   23232.47987865 -.00000077  00000+0  00000+0 0  9997
2 43565  57.2872   9.6015 0002904 203.6134 156.3757  1.70475916 31627
GSAT0219 (PRN E36)      
1 43566U 18060C   23233.28881733 -.00000075  00000+0  00000+0 0  9993
2 43566  57.2867   9.5818 0001252 259.9262 100.0640  1.70476123 31610
GSAT0220 (PRN E13)      
1 43567U 18060D   23232.92263259 -.00000076  00000+0  00000+0 0  9992
2 43567  57.2861   9.5927 0001565 251.2144 108.7721  1.70476072 31581
GSAT0223 (PRN E34)      
1 49809U 21116A   23232.27028066 -.00000078  00000+0  00000+0 0  9998
2 49809  57.2774   9.5060 0003122 166.3846 243.5065  1.70476314 10588
GSAT0224 (PRN E10)      
1 49810U 21116B   23234.05275613 -.00000073  00000+0  00000+0 0  9995
2 49810  57.2794   9.4566 0002742 153.8000  22.5193  1.70476229 10630
